{
  "type": "FeatureCollection",
  "features": [
    {
      "type": "Feature",
      "properties": {
        "norad_id": 43706,
        "name": "BEIDOU-3 M17 (C36)",
        "group": "beidou",
        "lat": -24.85788498775323,
        "lon": 27.973573295978934,
        "alt_km": 21533.48527119054,
        "timestamp": "2025-12-19T04:59:48.571528+00:00",
        "meta_object_name": "BEIDOU-3 M17 (C36)",
        "meta_object_id": "2018-093A",
        "meta_epoch": "2025-12-15T07:56:44.520576",
        "meta_mean_motion": 1.86228523,
        "meta_eccentricity": 0.00061371,
        "meta_inclination": 54.1729,
        "meta_ra_of_asc_node": 188.5337,
        "meta_arg_of_pericenter": 307.6759,
        "meta_mean_anomaly": 184.25,
        "meta_ephemeris_type": 0,
        "meta_classification_type": "U",
        "meta_norad_cat_id": 43706,
        "meta_element_set_no": 999,
        "meta_rev_at_epoch": 4811,
        "meta_bstar": 0,
        "meta_mean_motion_dot": 1.13e-06,
        "meta_mean_motion_ddot": 0,
        "tle_line1": "1 43706U 18093A   25349.33107084  .00000113  00000+0  00000+0 0  9993",
        "tle_line2": "2 43706  54.1729 188.5337 0006137 307.6759 184.2500  1.86228523 48110"
      },
      "geometry": {
        "type": "Point",
        "coordinates": [
          27.973573295978934,
          -24.85788498775323
        ]
      }
    },
    {
      "type": "Feature",
      "properties": {
        "norad_id": 43707,
        "name": "BEIDOU-3 M18 (C37)",
        "group": "beidou",
        "lat": -42.169586651258804,
        "lon": 147.5030539973221,
        "alt_km": 21521.890343244893,
        "timestamp": "2025-12-19T04:59:48.571539+00:00",
        "meta_object_name": "BEIDOU-3 M18 (C37)",
        "meta_object_id": "2018-093B",
        "meta_epoch": "2025-12-16T14:33:42.784416",
        "meta_mean_motion": 1.8622677,
        "meta_eccentricity": 0.00063186,
        "meta_inclination": 54.1735,
        "meta_ra_of_asc_node": 188.4822,
        "meta_arg_of_pericenter": 353.2257,
        "meta_mean_anomaly": 6.8349,
        "meta_ephemeris_type": 0,
        "meta_classification_type": "U",
        "meta_norad_cat_id": 43707,
        "meta_element_set_no": 999,
        "meta_rev_at_epoch": 4813,
        "meta_bstar": 0,
        "meta_mean_motion_dot": 1.15e-06,
        "meta_mean_motion_ddot": 0,
        "tle_line1": "1 43707U 18093B   25350.60674519  .00000115  00000+0  00000+0 0  9990",
        "tle_line2": "2 43707  54.1735 188.4822 0006318 353.2257   6.8349  1.86226770 48131"
      },
      "geometry": {
        "type": "Point",
        "coordinates": [
          147.5030539973221,
          -42.169586651258804
        ]
      }
    },
    {
      "type": "Feature",
      "properties": {
        "norad_id": 44204,
        "name": "BEIDOU-3 IGSO-1 (C38)",
        "group": "beidou",
        "lat": -44.859512769237426,
        "lon": -102.78978055114206,
        "alt_km": 35688.78017241748,
        "timestamp": "2025-12-19T04:59:48.571551+00:00",
        "meta_object_name": "BEIDOU-3 IGSO-1 (C38)",
        "meta_object_id": "2019-023A",
        "meta_epoch": "2025-11-19T14:15:02.708640",
        "meta_mean_motion": 1.00252177,
        "meta_eccentricity": 0.0026966,
        "meta_inclination": 58.4003,
        "meta_ra_of_asc_node": 39.8168,
        "meta_arg_of_pericenter": 221.2202,
        "meta_mean_anomaly": 126.9723,
        "meta_ephemeris_type": 0,
        "meta_classification_type": "U",
        "meta_norad_cat_id": 44204,
        "meta_element_set_no": 999,
        "meta_rev_at_epoch": 510,
        "meta_bstar": 0,
        "meta_mean_motion_dot": -2.26e-06,
        "meta_mean_motion_ddot": 0,
        "tle_line1": "1 44204U 19023A   25323.59378135 -.00000226  00000+0  00000+0 0  9994",
        "tle_line2": "2 44204  58.4003  39.8168 0026966 221.2202 126.9723  1.00252177  5102"
      },
      "geometry": {
        "type": "Point",
        "coordinates": [
          -102.78978055114206,
          -44.859512769237426
        ]
      }
    },
    {
      "type": "Feature",
      "properties": {
        "norad_id": 44231,
        "name": "BEIDOU-2 G8 (C01)",
        "group": "beidou",
        "lat": -1.3534130132115605,
        "lon": -52.619531408522995,
        "alt_km": 35754.114928520634,
        "timestamp": "2025-12-19T04:59:48.571567+00:00",
        "meta_object_name": "BEIDOU-2 G8 (C01)",
        "meta_object_id": "2019-027A",
        "meta_epoch": "2025-12-18T22:32:31.483392",
        "meta_mean_motion": 1.00276741,
        "meta_eccentricity": 0.00081204,
        "meta_inclination": 1.6771,
        "meta_ra_of_asc_node": 74.7239,
        "meta_arg_of_pericenter": 258.3755,
        "meta_mean_anomaly": 237.2498,
        "meta_ephemeris_type": 0,
        "meta_classification_type": "U",
        "meta_norad_cat_id": 44231,
        "meta_element_set_no": 999,
        "meta_rev_at_epoch": 2427,
        "meta_bstar": 0,
        "meta_mean_motion_dot": -2.23e-06,
        "meta_mean_motion_ddot": 0,
        "tle_line1": "1 44231U 19027A   25352.93925328 -.00000223  00000+0  00000+0 0  9997",
        "tle_line2": "2 44231   1.6771  74.7239 0008120 258.3755 237.2498  1.00276741 24274"
      },
      "geometry": {
        "type": "Point",
        "coordinates": [
          -52.619531408522995,
          -1.3534130132115605
        ]
      }
    },
    {
      "type": "Feature",
      "properties": {
        "norad_id": 44337,
        "name": "BEIDOU-3 IGSO-2 (C39)",
        "group": "beidou",
        "lat": 44.33718337666187,
        "lon": -62.4131913828186,
        "alt_km": 35755.62885345779,
        "timestamp": "2025-12-19T04:59:48.571579+00:00",
        "meta_object_name": "BEIDOU-3 IGSO-2 (C39)",
        "meta_object_id": "2019-035A",
        "meta_epoch": "2025-12-18T20:43:04.464768",
        "meta_mean_motion": 1.00269481,
        "meta_eccentricity": 0.00375097,
        "meta_inclination": 55.2274,
        "meta_ra_of_asc_node": 160.4476,
        "meta_arg_of_pericenter": 202.2689,
        "meta_mean_anomaly": 155.2054,
        "meta_ephemeris_type": 0,
        "meta_classification_type": "U",
        "meta_norad_cat_id": 44337,
        "meta_element_set_no": 999,
        "meta_rev_at_epoch": 2385,
        "meta_bstar": 0,
        "meta_mean_motion_dot": -5.3e-07,
        "meta_mean_motion_ddot": 0,
        "tle_line1": "1 44337U 19035A   25352.86324612 -.00000053  00000+0  00000+0 0  9995",
        "tle_line2": "2 44337  55.2274 160.4476 0037509 202.2689 155.2054  1.00269481 23850"
      },
      "geometry": {
        "type": "Point",
        "coordinates": [
          -62.4131913828186,
          44.33718337666187
        ]
      }
    },
    {
      "type": "Feature",
      "properties": {
        "norad_id": 44542,
        "name": "BEIDOU-3 M24 (C46)",
        "group": "beidou",
        "lat": -52.22588297328642,
        "lon": 76.46546793643165,
        "alt_km": 21550.61514305651,
        "timestamp": "2025-12-19T04:59:48.571591+00:00",
        "meta_object_name": "BEIDOU-3 M24 (C46)",
        "meta_object_id": "2019-061A",
        "meta_epoch": "2025-12-18T06:55:35.380416",
        "meta_mean_motion": 1.86229377,
        "meta_eccentricity": 0.00096187,
        "meta_inclination": 54.4001,
        "meta_ra_of_asc_node": 188.8287,
        "meta_arg_of_pericenter": 25.0003,
        "meta_mean_anomaly": 335.1131,
        "meta_ephemeris_type": 0,
        "meta_classification_type": "U",
        "meta_norad_cat_id": 44542,
        "meta_element_set_no": 999,
        "meta_rev_at_epoch": 4242,
        "meta_bstar": 0,
        "meta_mean_motion_dot": 1.09e-06,
        "meta_mean_motion_ddot": 0,
        "tle_line1": "1 44542U 19061A   25352.28860394  .00000109  00000+0  00000+0 0  9991",
        "tle_line2": "2 44542  54.4001 188.8287 0009618  25.0003 335.1131  1.86229377 42425"
      },
      "geometry": {
        "type": "Point",
        "coordinates": [
          76.46546793643165,
          -52.22588297328642
        ]
      }
    },
    {
      "type": "Feature",
      "properties": {
        "norad_id": 44543,
        "name": "BEIDOU-3 M23 (C45)",
        "group": "beidou",
        "lat": 8.593466269000515,
        "lon": 2.5537252236341415,
        "alt_km": 21541.32105571469,
        "timestamp": "2025-12-19T04:59:48.571603+00:00",
        "meta_object_name": "BEIDOU-3 M23 (C45)",
        "meta_object_id": "2019-061B",
        "meta_epoch": "2025-12-18T04:28:40.463616",
        "meta_mean_motion": 1.86227759,
        "meta_eccentricity": 0.00060655,
        "meta_inclination": 54.3991,
        "meta_ra_of_asc_node": 188.8006,
        "meta_arg_of_pericenter": 24.5513,
        "meta_mean_anomaly": 179.8901,
        "meta_ephemeris_type": 0,
        "meta_classification_type": "U",
        "meta_norad_cat_id": 44543,
        "meta_element_set_no": 999,
        "meta_rev_at_epoch": 4242,
        "meta_bstar": 0,
        "meta_mean_motion_dot": 1.09e-06,
        "meta_mean_motion_ddot": 0,
        "tle_line1": "1 44543U 19061B   25352.18657944  .00000109  00000+0  00000+0 0  9996",
        "tle_line2": "2 44543  54.3991 188.8006 0006065  24.5513 179.8901  1.86227759 42425"
      },
      "geometry": {
        "type": "Point",
        "coordinates": [
          2.5537252236341415,
          8.593466269000515
        ]
      }
    }
  ]
}